OBJECT_NAME,OBJECT_ID,EPOCH,MEAN_MOTION,ECCENTRICITY,INCLINATION,RA_OF_ASC_NODE,ARG_OF_PERICENTER,MEAN_ANOMALY,EPHEMERIS_TYPE,CLASSIFICATION_TYPE,NORAD_CAT_ID,ELEMENT_SET_NO,REV_AT_EPOCH,BSTAR,MEAN_MOTION_DOT,MEAN_MOTION_DDOT
BEIDOU-2 M4,2012-018B,2026-06-07T23:49:27.858720,1.86229806,.0011102,55.6665,304.3996,277.5873,82.2781,0,U,38251,999,9577,0,-.55E-6,0
ARIRANG-3 (KOMPSAT-3),2012-025B,2026-06-08T03:16:51.634272,14.62198643,.0006293,98.1173,116.7532,132.6287,227.5446,0,U,38338,999,75002,.10987E-3,.507E-5,0
METOP-B,2012-049A,2026-06-08T04:18:31.260672,14.21430293,.0002754,98.6507,210.8581,40.5698,319.5684,0,U,38771,999,71198,.63772E-4,.96E-6,0
SJ-9A,2012-056A,2026-06-08T04:55:58.903968,14.85458355,.0024037,97.6703,131.4824,288.2558,71.6042,0,U,38860,999,69825,.17601E-3,.1472E-4,0
COSMOS 2484 (RODNIK-S 6),2013-001C,2026-06-08T03:08:20.979168,12.42938927,.0027209,82.5017,227.5226,55.8776,304.4879,0,U,39059,999,60743,.19314E-5,.1E-6,0
SARAL,2013-009A,2026-06-08T04:08:16.147968,14.32853722,.0001217,98.5558,345.8541,352.4180,7.6986,0,U,39086,999,69431,.46528E-4,.83E-6,0
STRAND-1,2013-009E,2026-06-08T00:07:25.951872,14.37158036,.0007416,98.3920,339.4657,256.8127,103.2233,0,U,39090,999,69574,.12142E-3,.318E-5,0
BRITE-AUSTRIA,2013-009F,2026-06-07T17:39:04.505184,14.36538507,.0008958,98.3993,338.4054,268.4216,91.5944,0,U,39091,999,69569,.86658E-4,.212E-5,0
GAOFEN-1,2013-018A,2026-06-08T01:11:55.431168,14.76526544,.0015888,97.9091,231.3033,298.8203,61.1412,0,U,39150,999,70689,.35695E-4,.198E-5,0
NEE-01 PEGASO,2013-018B,2026-06-07T21:16:56.951328,14.93617855,.0012438,98.1215,302.7307,188.3963,171.7049,0,U,39151,999,70931,.35587E-3,.3701E-4,0
PROBA-V,2013-021A,2026-06-08T04:37:53.893632,14.23595079,.0004722,98.3580,138.2439,145.2119,214.9370,0,U,39159,999,67983,.52071E-4,.78E-6,0
ARIRANG-5 (KOMPSAT-5),2013-042A,2026-06-08T04:29:44.182752,15.04556469,.0004146,97.6216,346.0143,142.7095,217.4419,0,U,39227,999,70250,.13283E-3,.1802E-4,0
GONETS-M 5,2013-048A,2026-06-08T04:18:51.576768,12.42891521,.0015748,82.4834,348.9989,231.2771,128.6901,0,U,39249,999,57776,.15991E-3,.32E-6,0
GONETS-M 7,2013-048C,2026-06-08T05:21:40.140864,12.42914147,.0016551,82.4902,351.8896,232.5012,127.4564,0,U,39251,999,57772,-.24092E-3,-.24E-6,0
FENGYUN 3C,2013-052A,2026-06-08T05:01:51.244896,14.15753076,.0015648,98.4975,133.4969,52.1181,308.1407,0,U,39260,999,65729,.67838E-4,.92E-6,0
CASSIOPE,2013-055A,2026-06-08T02:32:43.405152,15.24370033,.0295754,80.9146,77.7409,92.8911,270.6205,0,U,39265,999,66628,.48934E-3,.44341E-3,-.53464E-6
APRIZESAT 7,2013-066A,2026-06-08T02:20:13.859232,14.91546074,.0034425,97.7704,112.4481,240.3619,119.4169,0,U,39416,999,67987,.1383E-3,.1343E-4,0
ZACUBE-1 (TSHEPISOSAT),2013-066B,2026-06-08T03:24:31.417920,15.01133704,.0039989,97.8095,121.4299,279.5341,80.1364,0,U,39417,999,67937,.34934E-3,.4487E-4,0
APRIZESAT 8,2013-066K,2026-06-07T19:00:37.416672,14.87634950,.0044905,97.8217,106.3913,318.3975,41.3827,0,U,39425,999,67827,.13887E-3,.1229E-4,0
TRITON-1,2013-066M,2026-06-08T04:17:28.789152,14.81677985,.0088297,97.8248,69.1906,263.7317,95.3833,0,U,39427,999,67275,.38804E-3,.321E-4,0
